<?xml version="1.0" encoding="UTF-8"?>
<ndm xmlns:xsi="http://www.w3.org/2001/XMLSchema-instance" xsi:noNamespaceSchemaLocation="https://sanaregistry.org/r/ndmxml_unqualified/ndmxml-2.0.0-master-2.0.xsd">
<omm id="CCSDS_OMM_VERS" version="2.0">
<header><CREATION_DATE/><ORIGINATOR/></header><body><segment><metadata><OBJECT_NAME>IRIDIUM 57 [-]</OBJECT_NAME><OBJECT_ID>1998-019B</OBJECT_ID><CENTER_NAME>EARTH</CENTER_NAME><REF_FRAME>TEME</REF_FRAME><TIME_SYSTEM>UTC</TIME_SYSTEM><MEAN_ELEMENT_THEORY>SGP4</MEAN_ELEMENT_THEORY></metadata><data><meanElements><EPOCH>2023-10-01T03:15:19.848960</EPOCH><MEAN_MOTION>14.34915112</MEAN_MOTION><ECCENTRICITY>.000211</ECCENTRICITY><INCLINATION>86.3971</INCLINATION><RA_OF_ASC_NODE>46.9793</RA_OF_ASC_NODE><ARG_OF_PERICENTER>91.9645</ARG_OF_PERICENTER><MEAN_ANOMALY>268.1793</MEAN_ANOMALY></meanElements><tleParameters><EPHEMERIS_TYPE>0</EPHEMERIS_TYPE><CLASSIFICATION_TYPE>U</CLASSIFICATION_TYPE><NORAD_CAT_ID>25273</NORAD_CAT_ID><ELEMENT_SET_NO>999</ELEMENT_SET_NO><REV_AT_EPOCH>33533</REV_AT_EPOCH><BSTAR>.255E-3</BSTAR><MEAN_MOTION_DOT>.744E-5</MEAN_MOTION_DOT><MEAN_MOTION_DDOT>0</MEAN_MOTION_DDOT></tleParameters></data></segment></body></omm>
<omm id="CCSDS_OMM_VERS" version="2.0">
<header><CREATION_DATE/><ORIGINATOR/></header><body><segment><metadata><OBJECT_NAME>IRIDIUM 63 [-]</OBJECT_NAME><OBJECT_ID>1998-021B</OBJECT_ID><CENTER_NAME>EARTH</CENTER_NAME><REF_FRAME>TEME</REF_FRAME><TIME_SYSTEM>UTC</TIME_SYSTEM><MEAN_ELEMENT_THEORY>SGP4</MEAN_ELEMENT_THEORY></metadata><data><meanElements><EPOCH>2023-10-01T04:25:12.755424</EPOCH><MEAN_MOTION>14.35425005</MEAN_MOTION><ECCENTRICITY>.000233</ECCENTRICITY><INCLINATION>86.4030</INCLINATION><RA_OF_ASC_NODE>343.9320</RA_OF_ASC_NODE><ARG_OF_PERICENTER>95.9076</ARG_OF_PERICENTER><MEAN_ANOMALY>264.2386</MEAN_ANOMALY></meanElements><tleParameters><EPHEMERIS_TYPE>0</EPHEMERIS_TYPE><CLASSIFICATION_TYPE>U</CLASSIFICATION_TYPE><NORAD_CAT_ID>25286</NORAD_CAT_ID><ELEMENT_SET_NO>999</ELEMENT_SET_NO><REV_AT_EPOCH>33442</REV_AT_EPOCH><BSTAR>.23768E-3</BSTAR><MEAN_MOTION_DOT>.702E-5</MEAN_MOTION_DOT><MEAN_MOTION_DDOT>0</MEAN_MOTION_DDOT></tleParameters></data></segment></body></omm>
<omm id="CCSDS_OMM_VERS" version="2.0">
<header><CREATION_DATE/><ORIGINATOR/></header><body><segment><metadata><OBJECT_NAME>IRIDIUM 69 [-]</OBJECT_NAME><OBJECT_ID>1998-026A</OBJECT_ID><CENTER_NAME>EARTH</CENTER_NAME><REF_FRAME>TEME</REF_FRAME><TIME_SYSTEM>UTC</TIME_SYSTEM><MEAN_ELEMENT_THEORY>SGP4</MEAN_ELEMENT_THEORY></metadata><data><meanElements><EPOCH>2023-09-30T18:12:14.326560</EPOCH><MEAN_MOTION>14.39586527</MEAN_MOTION><ECCENTRICITY>.0000447</ECCENTRICITY><INCLINATION>86.4046</INCLINATION><RA_OF_ASC_NODE>359.2376</RA_OF_ASC_NODE><ARG_OF_PERICENTER>3.5930</ARG_OF_PERICENTER><MEAN_ANOMALY>356.5272</MEAN_ANOMALY></meanElements><tleParameters><EPHEMERIS_TYPE>0</EPHEMERIS_TYPE><CLASSIFICATION_TYPE>U</CLASSIFICATION_TYPE><NORAD_CAT_ID>25319</NORAD_CAT_ID><ELEMENT_SET_NO>999</ELEMENT_SET_NO><REV_AT_EPOCH>33328</REV_AT_EPOCH><BSTAR>.27366E-3</BSTAR><MEAN_MOTION_DOT>.874E-5</MEAN_MOTION_DOT><MEAN_MOTION_DDOT>0</MEAN_MOTION_DDOT></tleParameters></data></segment></body></omm>
<omm id="CCSDS_OMM_VERS" version="2.0">
<header><CREATION_DATE/><ORIGINATOR/></header><body><segment><metadata><OBJECT_NAME>IRIDIUM 71 [-]</OBJECT_NAME><OBJECT_ID>1998-026B</OBJECT_ID><CENTER_NAME>EARTH</CENTER_NAME><REF_FRAME>TEME</REF_FRAME><TIME_SYSTEM>UTC</TIME_SYSTEM><MEAN_ELEMENT_THEORY>SGP4</MEAN_ELEMENT_THEORY></metadata><data><meanElements><EPOCH>2023-09-30T11:16:19.042176</EPOCH><MEAN_MOTION>14.39923850</MEAN_MOTION><ECCENTRICITY>.0002704</ECCENTRICITY><INCLINATION>86.4037</INCLINATION><RA_OF_ASC_NODE>354.1973</RA_OF_ASC_NODE><ARG_OF_PERICENTER>42.7684</ARG_OF_PERICENTER><MEAN_ANOMALY>317.3725</MEAN_ANOMALY></meanElements><tleParameters><EPHEMERIS_TYPE>0</EPHEMERIS_TYPE><CLASSIFICATION_TYPE>U</CLASSIFICATION_TYPE><NORAD_CAT_ID>25320</NORAD_CAT_ID><ELEMENT_SET_NO>999</ELEMENT_SET_NO><REV_AT_EPOCH>33376</REV_AT_EPOCH><BSTAR>.2414E-3</BSTAR><MEAN_MOTION_DOT>.778E-5</MEAN_MOTION_DOT><MEAN_MOTION_DDOT>0</MEAN_MOTION_DDOT></tleParameters></data></segment></body></omm>
<omm id="CCSDS_OMM_VERS" version="2.0">
<header><CREATION_DATE/><ORIGINATOR/></header><body><segment><metadata><OBJECT_NAME>IRIDIUM 73 [-]</OBJECT_NAME><OBJECT_ID>1998-032C</OBJECT_ID><CENTER_NAME>EARTH</CENTER_NAME><REF_FRAME>TEME</REF_FRAME><TIME_SYSTEM>UTC</TIME_SYSTEM><MEAN_ELEMENT_THEORY>SGP4</MEAN_ELEMENT_THEORY></metadata><data><meanElements><EPOCH>2023-09-30T15:14:49.554528</EPOCH><MEAN_MOTION>14.50040013</MEAN_MOTION><ECCENTRICITY>.0001742</ECCENTRICITY><INCLINATION>86.4401</INCLINATION><RA_OF_ASC_NODE>311.9948</RA_OF_ASC_NODE><ARG_OF_PERICENTER>80.4448</ARG_OF_PERICENTER><MEAN_ANOMALY>279.6954</MEAN_ANOMALY></meanElements><tleParameters><EPHEMERIS_TYPE>0</EPHEMERIS_TYPE><CLASSIFICATION_TYPE>U</CLASSIFICATION_TYPE><NORAD_CAT_ID>25344</NORAD_CAT_ID><ELEMENT_SET_NO>999</ELEMENT_SET_NO><REV_AT_EPOCH>34016</REV_AT_EPOCH><BSTAR>.17797E-3</BSTAR><MEAN_MOTION_DOT>.71E-5</MEAN_MOTION_DOT><MEAN_MOTION_DDOT>0</MEAN_MOTION_DDOT></tleParameters></data></segment></body></omm>
<omm id="CCSDS_OMM_VERS" version="2.0">
<header><CREATION_DATE/><ORIGINATOR/></header><body><segment><metadata><OBJECT_NAME>IRIDIUM 82 [-]</OBJECT_NAME><OBJECT_ID>1998-051A</OBJECT_ID><CENTER_NAME>EARTH</CENTER_NAME><REF_FRAME>TEME</REF_FRAME><TIME_SYSTEM>UTC</TIME_SYSTEM><MEAN_ELEMENT_THEORY>SGP4</MEAN_ELEMENT_THEORY></metadata><data><meanElements><EPOCH>2023-09-30T10:54:53.264160</EPOCH><MEAN_MOTION>15.02435639</MEAN_MOTION><ECCENTRICITY>.0149447</ECCENTRICITY><INCLINATION>86.3960</INCLINATION><RA_OF_ASC_NODE>48.2996</RA_OF_ASC_NODE><ARG_OF_PERICENTER>92.9572</ARG_OF_PERICENTER><MEAN_ANOMALY>268.8775</MEAN_ANOMALY></meanElements><tleParameters><EPHEMERIS_TYPE>0</EPHEMERIS_TYPE><CLASSIFICATION_TYPE>U</CLASSIFICATION_TYPE><NORAD_CAT_ID>25467</NORAD_CAT_ID><ELEMENT_SET_NO>999</ELEMENT_SET_NO><REV_AT_EPOCH>32924</REV_AT_EPOCH><BSTAR>.10381E-2</BSTAR><MEAN_MOTION_DOT>.17615E-3</MEAN_MOTION_DOT><MEAN_MOTION_DDOT>0</MEAN_MOTION_DDOT></tleParameters></data></segment></body></omm>
<omm id="CCSDS_OMM_VERS" version="2.0">
<header><CREATION_DATE/><ORIGINATOR/></header><body><segment><metadata><OBJECT_NAME>IRIDIUM 2 [-]</OBJECT_NAME><OBJECT_ID>1998-066A</OBJECT_ID><CENTER_NAME>EARTH</CENTER_NAME><REF_FRAME>TEME</REF_FRAME><TIME_SYSTEM>UTC</TIME_SYSTEM><MEAN_ELEMENT_THEORY>SGP4</MEAN_ELEMENT_THEORY></metadata><data><meanElements><EPOCH>2023-10-01T00:57:19.030176</EPOCH><MEAN_MOTION>15.40659858</MEAN_MOTION><ECCENTRICITY>.0003556</ECCENTRICITY><INCLINATION>85.5154</INCLINATION><RA_OF_ASC_NODE>107.1630</RA_OF_ASC_NODE><ARG_OF_PERICENTER>239.9051</ARG_OF_PERICENTER><MEAN_ANOMALY>120.1849</MEAN_ANOMALY></meanElements><tleParameters><EPHEMERIS_TYPE>0</EPHEMERIS_TYPE><CLASSIFICATION_TYPE>U</CLASSIFICATION_TYPE><NORAD_CAT_ID>25527</NORAD_CAT_ID><ELEMENT_SET_NO>999</ELEMENT_SET_NO><REV_AT_EPOCH>36694</REV_AT_EPOCH><BSTAR>.91214E-3</BSTAR><MEAN_MOTION_DOT>.3733E-3</MEAN_MOTION_DOT><MEAN_MOTION_DDOT>0</MEAN_MOTION_DDOT></tleParameters></data></segment></body></omm>
</ndm>
